NORAD_CAT_ID,OBJECT_NAME,OBJECT_TYPE,EPOCH,MEAN_MOTION,ECCENTRICITY,INCLINATION,RA_OF_ASC_NODE,ARG_OF_PERICENTER,MEAN_ANOMALY,BSTAR,MEAN_MOTION_DOT,MEAN_MOTION_DDOT,TLE_LINE0,TLE_LINE1,TLE_LINE2,SEMIMAJOR_AXIS,PERIOD,APOGEE,PERIGEE,DECAYED
55767.0,STARLINK-5606,PAYLOAD,2024-08-10 04:25:40,14.98331641,0.0003156,69.9981,238.2111,272.8424,87.2374,-3.3063e-05,-4.88e-06,0.0,0 STARLINK-5606,1 55767U 23028AC  24223.18449386 -.00000488  00000-0 -33063-4 0  9992,2 55767  69.9981 238.2111 0003156 272.8424  87.2374 14.98331641 80162,6950.188,96.107,574.246,569.859,0.0
55767.0,STARLINK-5606,PAYLOAD,2024-08-10 10:50:12,14.98327441,0.0003028,69.9988,237.5392,268.4546,91.6266,-4.8466e-05,-6.71e-06,0.0,0 STARLINK-5606,1 55767U 23028AC  24223.45153705 -.00000671  00000-0 -48466-4 0  9996,2 55767  69.9988 237.5392 0003028 268.4546  91.6266 14.98327441 80214,6950.201,96.107,574.17,569.961,0.0
55767.0,STARLINK-5606,PAYLOAD,2024-08-11 09:16:04,14.98340336,0.000326,69.9982,235.1825,270.185,89.8935,2.0965e-05,1.57e-06,0.0,0 STARLINK-5606,1 55767U 23028AC  24224.38616463  .00000157  00000-0  20965-4 0  9995,2 55767  69.9982 235.1825 0003260 270.1850  89.8935 14.98340336 80343,6950.161,96.106,574.292,569.76,0.0
55767.0,STARLINK-5606,PAYLOAD,2024-08-12 04:29:41,14.98330643,0.0003201,69.9982,233.1625,270.1613,89.918,0.00012253,1.369e-05,0.0,0 STARLINK-5606,1 55767U 23028AC  24225.18728611  .00001369  00000-0  12253-3 0  9999,2 55767  69.9982 233.1625 0003201 270.1613  89.9180 14.98330643 80467,6950.191,96.107,574.281,569.831,0.0
55767.0,STARLINK-5606,PAYLOAD,2024-08-12 10:54:13,14.98334584,0.0002962,69.9989,232.4904,266.0301,94.052,0.00015137,1.714e-05,0.0,0 STARLINK-5606,1 55767U 23028AC  24225.45432327  .00001714  00000-0  15137-3 0  9993,2 55767  69.9989 232.4904 0002962 266.0301  94.0520 14.98334584 80516,6950.179,96.107,574.102,569.985,0.0
55767.0,STARLINK-5606,PAYLOAD,2024-08-12 17:18:46,14.98309814,0.0002779,69.9992,231.8166,270.6703,89.4138,0.00051283,6.028e-05,0.0,0 STARLINK-5606,1 55767U 23028AC  24225.72137339  .00006028  00000-0  51283-3 0  9993,2 55767  69.9992 231.8166 0002779 270.6703  89.4138 14.98309814 80540,6950.255,96.108,574.052,570.189,0.0
55767.0,STARLINK-5606,PAYLOAD,2024-08-13 04:31:42,14.98330982,0.0003142,69.9988,230.6382,270.0859,89.994,5.0655e-05,5.11e-06,0.0,0 STARLINK-5606,1 55767U 23028AC  24226.18868513  .00000511  00000-0  50655-4 0  9993,2 55767  69.9988 230.6382 0003142 270.0859  89.9940 14.98330982 80617,6950.19,96.107,574.239,569.871,0.0
55767.0,STARLINK-5606,PAYLOAD,2024-08-13 09:20:06,14.98348379,0.0002727,69.999,230.1332,264.8484,95.2364,-0.00020886,-2.585e-05,0.0,0 STARLINK-5606,1 55767U 23028AC  24226.38895960 -.00002585  00000-0 -20886-3 0  9998,2 55767  69.9990 230.1332 0002727 264.8484  95.2364 14.98348379 80645,6950.136,96.106,573.896,570.106,0.0
55767.0,STARLINK-5606,PAYLOAD,2024-08-13 17:20:46,14.98341769,0.0002872,69.999,229.2906,272.0646,88.0184,-0.0002614,-3.211e-05,0.0,0 STARLINK-5606,1 55767U 23028AC  24226.72276439 -.00003211  00000-0 -26140-3 0  9996,2 55767  69.9990 229.2906 0002872 272.0646  88.0184 14.98341769 80694,6950.156,96.106,574.018,570.025,0.0
55767.0,STARLINK-5606,PAYLOAD,2024-08-14 04:33:44,14.98321527,0.0002725,69.9994,228.1147,261.318,98.767,-0.0001044,-1.338e-05,0.0,0 STARLINK-5606,1 55767U 23028AC  24227.19009572 -.00001338  00000-0 -10440-3 0  9994,2 55767  69.9994 228.1147 0002725 261.3180  98.7670 14.98321527 80760,6950.219,96.108,573.978,570.19,0.0
55767.0,STARLINK-5606,PAYLOAD,2024-08-14 09:22:08,14.98317675,0.0002786,69.9992,227.6085,263.9847,96.0995,-0.00012471,-1.58e-05,0.0,0 STARLINK-5606,1 55767U 23028AC  24227.39037962 -.00001580  00000-0 -12471-3 0  9995,2 55767  69.9992 227.6085 0002786 263.9847  96.0995 14.98317675 80803,6950.231,96.108,574.032,570.16,0.0
55767.0,STARLINK-5606,PAYLOAD,2024-08-14 17:22:48,14.98323585,0.000288,69.9992,226.7675,265.6683,94.4147,-9.2732e-05,-1.199e-05,0.0,0 STARLINK-5606,1 55767U 23028AC  24227.72417683 -.00001199  00000-0 -92732-4 0  9999,2 55767  69.9992 226.7675 0002880 265.6683  94.4147 14.98323585 80853,6950.213,96.107,574.079,570.076,0.0
55767.0,STARLINK-5606,PAYLOAD,2024-08-15 04:35:45,14.98324448,0.0002976,69.9992,225.5888,266.8501,93.2317,-5.5732e-06,-1.59e-06,0.0,0 STARLINK-5606,1 55767U 23028AC  24228.19149564 -.00000159  00000-0 -55732-5 0  9996,2 55767  69.9992 225.5888 0002976 266.8501  93.2317 14.98324448 80916,6950.21,96.107,574.143,570.007,0.0
55767.0,STARLINK-5606,PAYLOAD,2024-08-15 09:24:09,14.98325132,0.000286,69.9991,225.0838,266.3049,93.7783,1.2999e-05,6.2e-07,0.0,0 STARLINK-5606,1 55767U 23028AC  24228.39177562  .00000062  00000-0  12999-4 0  9995,2 55767  69.9991 225.0838 0002860 266.3049  93.7783 14.98325132 80956,6950.208,96.107,574.061,570.085,0.0
55767.0,STARLINK-5606,PAYLOAD,2024-08-15 17:24:49,14.98329969,0.0003051,69.9986,224.2412,262.4244,97.6568,2.1373e-05,1.62e-06,0.0,0 STARLINK-5606,1 55767U 23028AC  24228.72557218  .00000162  00000-0  21373-4 0  9999,2 55767  69.9986 224.2412 0003051 262.4244  97.6568 14.98329969 81009,6950.193,96.107,574.178,569.937,0.0
55767.0,STARLINK-5606,PAYLOAD,2024-08-16 04:37:45,14.98325958,0.0003084,69.9985,223.0629,265.3006,94.78,0.00021155,2.432e-05,0.0,0 STARLINK-5606,1 55767U 23028AC  24229.19289177  .00002432  00000-0  21155-3 0  9996,2 55767  69.9985 223.0629 0003084 265.3006  94.7800 14.98325958 81066,6950.205,96.107,574.214,569.927,0.0
55767.0,STARLINK-5606,PAYLOAD,2024-08-16 09:26:09,14.98330915,0.0003086,69.9985,222.5579,265.2801,94.8005,0.00021482,2.471e-05,0.0,0 STARLINK-5606,1 55767U 23028AC  24229.39316906  .00002471  00000-0  21482-3 0  9995,2 55767  69.9985 222.5579 0003086 265.2801  94.8005 14.98330915 81100,6950.19,96.107,574.2,569.91,0.0
55767.0,STARLINK-5606,PAYLOAD,2024-08-17 04:39:46,14.98333522,0.0003145,69.9988,220.538,264.8382,95.2418,0.00014915,1.687e-05,0.0,0 STARLINK-5606,1 55767U 23028AC  24230.19428811  .00001687  00000-0  14915-3 0  9995,2 55767  69.9988 220.5380 0003145 264.8382  95.2418 14.98333522 81218,6950.182,96.107,574.233,569.861,0.0
55767.0,STARLINK-5606,PAYLOAD,2024-08-17 07:52:02,14.98337284,0.0003074,69.9988,220.2014,265.3635,94.7173,0.00013147,1.476e-05,0.0,0 STARLINK-5606,1 55767U 23028AC  24230.32780586  .00001476  00000-0  13147-3 0  9992,2 55767  69.9988 220.2014 0003074 265.3635  94.7173 14.98337284 81241,6950.17,96.107,574.172,569.899,0.0
55767.0,STARLINK-5606,PAYLOAD,2024-08-18 04:41:47,14.98335785,0.0002866,69.9998,218.0135,268.8382,91.2448,-3.2202e-05,-4.77e-06,0.0,0 STARLINK-5606,1 55767U 23028AC  24231.19568774 -.00000477  00000-0 -32202-4 0  9997,2 55767  69.9998 218.0135 0002866 268.8382  91.2448 14.98335785 81360,6950.175,96.107,574.032,570.048,0.0
55767.0,STARLINK-5606,PAYLOAD,2024-08-18 09:30:12,14.98298562,0.0002648,69.9997,217.5088,268.7281,91.3574,0.00062751,7.396e-05,0.0,0 STARLINK-5606,1 55767U 23028AC  24231.39597639  .00007396  00000-0  62751-3 0  9997,2 55767  69.9997 217.5088 0002648 268.7281  91.3574 14.98298562 81390,6950.29,96.109,573.996,570.315,0.0
55767.0,STARLINK-5606,PAYLOAD,2024-08-18 22:19:16,14.98332859,0.0002759,70.0,216.1615,269.8566,90.2277,-2.1689e-05,-3.52e-06,0.0,0 STARLINK-5606,1 55767U 23028AC  24231.93004701 -.00000352  00000-0 -21689-4 0  9993,2 55767  70.0000 216.1615 0002759 269.8566  90.2277 14.98332859 81486,6950.184,96.107,573.967,570.131,0.0
55767.0,STARLINK-5606,PAYLOAD,2024-08-19 04:43:48,14.98331851,0.000281,70.0,215.4884,269.0221,91.0616,-3.7161e-05,-5.36e-06,0.0,0 STARLINK-5606,1 55767U 23028AC  24232.19708726 -.00000536  00000-0 -37161-4 0  9996,2 55767  70.0000 215.4884 0002810 269.0221  91.0616 14.98331851 81515,6950.187,96.107,574.005,570.099,0.0
55767.0,STARLINK-5606,PAYLOAD,2024-08-19 09:32:12,14.98331868,0.000281,70.0,214.9834,269.203,90.8807,-3.5361e-05,-5.15e-06,0.0,0 STARLINK-5606,1 55767U 23028AC  24232.39736691 -.00000515  00000-0 -35361-4 0  9997,2 55767  70.0000 214.9834 0002810 269.2030  90.8807 14.98331868 81555,6950.187,96.107,574.005,570.099,0.0
55767.0,STARLINK-5606,PAYLOAD,2024-08-20 01:33:32,14.98330072,0.0002843,69.9998,213.3005,265.092,94.9914,2.8848e-05,2.51e-06,0.0,0 STARLINK-5606,1 55767U 23028AC  24233.06496519  .00000251  00000-0  28848-4 0  9991,2 55767  69.9998 213.3005 0002843 265.0920  94.9914 14.98330072 81650,6950.193,96.107,574.034,570.082,0.0
55767.0,STARLINK-5606,PAYLOAD,2024-08-21 04:47:49,14.9834006,0.0003059,69.9996,210.4387,268.3426,91.7383,0.00015851,1.799e-05,0.0,0 STARLINK-5606,1 55767U 23028AC  24234.19987803  .00001799  00000-0  15851-3 0  9994,2 55767  69.9996 210.4387 0003059 268.3426  91.7383 14.98340060 81817,6950.162,96.106,574.153,569.901,0.0
55767.0,STARLINK-5606,PAYLOAD,2024-08-21 08:00:05,14.98331763,0.000283,69.9998,210.1024,264.3856,95.698,5.432e-05,5.55e-06,0.0,0 STARLINK-5606,1 55767U 23028AC  24234.33340266  .00000555  00000-0  54320-4 0  9990,2 55767  69.9998 210.1024 0002830 264.3856  95.6980 14.98331763 81831,6950.187,96.107,574.019,570.086,0.0
55767.0,STARLINK-5606,PAYLOAD,2024-08-21 22:25:18,14.98329131,0.000283,69.9998,208.5875,267.2802,92.8033,9.4832e-06,2e-07,0.0,0 STARLINK-5606,1 55767U 23028AC  24234.93424547  .00000020  00000-0  94832-5 0  9991,2 55767  69.9998 208.5875 0002830 267.2802  92.8033 14.98329131 81934,6950.196,96.107,574.027,570.094,0.0
